{
  "type": "FeatureCollection",
  "features": [
    {
      "type": "Feature",
      "properties": {
        "norad_id": 58654,
        "name": "BEIDOU-3 M28 (C50)",
        "group": "beidou",
        "lat": 14.749739919031624,
        "lon": -121.55458738192698,
        "alt_km": 21527.812055355647,
        "timestamp": "2025-12-06T05:40:09.507051+00:00",
        "meta_object_name": "BEIDOU-3 M28 (C50)",
        "meta_object_id": "2023-207A",
        "meta_epoch": "2025-12-03T07:26:02.398272",
        "meta_mean_motion": 1.86229561,
        "meta_eccentricity": 0.00020314,
        "meta_inclination": 55.5764,
        "meta_ra_of_asc_node": 68.9209,
        "meta_arg_of_pericenter": 265.1091,
        "meta_mean_anomaly": 94.871,
        "meta_ephemeris_type": 0,
        "meta_classification_type": "U",
        "meta_norad_cat_id": 58654,
        "meta_element_set_no": 999,
        "meta_rev_at_epoch": 1319,
        "meta_bstar": 0,
        "meta_mean_motion_dot": -5.1e-07,
        "meta_mean_motion_ddot": 0,
        "tle_line1": "1 58654U 23207A   25337.30974998 -.00000051  00000+0  00000+0 0  9996",
        "tle_line2": "2 58654  55.5764  68.9209 0002031 265.1091  94.8710  1.86229561 13199"
      },
      "geometry": {
        "type": "Point",
        "coordinates": [
          -121.55458738192698,
          14.749739919031624
        ]
      }
    },
    {
      "type": "Feature",
      "properties": {
        "norad_id": 58655,
        "name": "BEIDOU-3 M26 (C48)",
        "group": "beidou",
        "lat": -46.95581835527876,
        "lon": 21.67849500622941,
        "alt_km": 21526.82402992644,
        "timestamp": "2025-12-06T05:40:09.507062+00:00",
        "meta_object_name": "BEIDOU-3 M26 (C48)",
        "meta_object_id": "2023-207B",
        "meta_epoch": "2025-12-03T02:34:45.227424",
        "meta_mean_motion": 1.86231091,
        "meta_eccentricity": 0.00034591,
        "meta_inclination": 55.5782,
        "meta_ra_of_asc_node": 68.9139,
        "meta_arg_of_pericenter": 250.5367,
        "meta_mean_anomaly": 109.429,
        "meta_ephemeris_type": 0,
        "meta_classification_type": "U",
        "meta_norad_cat_id": 58655,
        "meta_element_set_no": 999,
        "meta_rev_at_epoch": 1317,
        "meta_bstar": 0,
        "meta_mean_motion_dot": -5e-07,
        "meta_mean_motion_ddot": 0,
        "tle_line1": "1 58655U 23207B   25337.10746791 -.00000050  00000+0  00000+0 0  9992",
        "tle_line2": "2 58655  55.5782  68.9139 0003459 250.5367 109.4290  1.86231091 13176"
      },
      "geometry": {
        "type": "Point",
        "coordinates": [
          21.67849500622941,
          -46.95581835527876
        ]
      }
    },
    {
      "type": "Feature",
      "properties": {
        "norad_id": 61186,
        "name": "BEIDOU-3 M25 (C47)",
        "group": "beidou",
        "lat": 41.69538560967971,
        "lon": -11.879186853442766,
        "alt_km": 21530.81161541939,
        "timestamp": "2025-12-06T05:40:09.507074+00:00",
        "meta_object_name": "BEIDOU-3 M25 (C47)",
        "meta_object_id": "2024-168B",
        "meta_epoch": "2025-12-05T05:13:31.135872",
        "meta_mean_motion": 1.86229714,
        "meta_eccentricity": 0.00054853,
        "meta_inclination": 54.6489,
        "meta_ra_of_asc_node": 308.9806,
        "meta_arg_of_pericenter": 294.5401,
        "meta_mean_anomaly": 157.173,
        "meta_ephemeris_type": 0,
        "meta_classification_type": "U",
        "meta_norad_cat_id": 61186,
        "meta_element_set_no": 999,
        "meta_rev_at_epoch": 817,
        "meta_bstar": 0,
        "meta_mean_motion_dot": -7e-07,
        "meta_mean_motion_ddot": 0,
        "tle_line1": "1 61186U 24168B   25339.21772148 -.00000070  00000+0  00000+0 0  9993",
        "tle_line2": "2 61186  54.6489 308.9806 0005485 294.5401 157.1730  1.86229714  8171"
      },
      "geometry": {
        "type": "Point",
        "coordinates": [
          -11.879186853442766,
          41.69538560967971
        ]
      }
    },
    {
      "type": "Feature",
      "properties": {
        "norad_id": 61187,
        "name": "BEIDOU-3 M27 (C49)",
        "group": "beidou",
        "lat": -7.776574963824962,
        "lon": 134.4673193694349,
        "alt_km": 21534.342971621125,
        "timestamp": "2025-12-06T05:40:09.507085+00:00",
        "meta_object_name": "BEIDOU-3 M27 (C49)",
        "meta_object_id": "2024-168C",
        "meta_epoch": "2025-12-05T03:27:10.204704",
        "meta_mean_motion": 1.86229855,
        "meta_eccentricity": 0.00022725,
        "meta_inclination": 54.6444,
        "meta_ra_of_asc_node": 308.9668,
        "meta_arg_of_pericenter": 330.3583,
        "meta_mean_anomaly": 206.7783,
        "meta_ephemeris_type": 0,
        "meta_classification_type": "U",
        "meta_norad_cat_id": 61187,
        "meta_element_set_no": 999,
        "meta_rev_at_epoch": 564,
        "meta_bstar": 0,
        "meta_mean_motion_dot": -7e-07,
        "meta_mean_motion_ddot": 0,
        "tle_line1": "1 61187U 24168C   25339.14386811 -.00000070  00000+0  00000+0 0  9994",
        "tle_line2": "2 61187  54.6444 308.9668 0002272 330.3583 206.7783  1.86229855  5644"
      },
      "geometry": {
        "type": "Point",
        "coordinates": [
          134.4673193694349,
          -7.776574963824962
        ]
      }
    }
  ]
}